HIMAWARI-8              
1 40267U 14060A   24080.50188382 -.00000289  00000+0  00000+0 0  9997
2 40267   0.0257 203.1596 0001184 137.0622 159.6173  1.00271469 34555
